CCSDS_OMM_VERS = 2.0
CREATION_DATE  = 
ORIGINATOR     = 

OBJECT_NAME    = STARLINK-37163
OBJECT_ID      = 2026-055C
CENTER_NAME    = EARTH
REF_FRAME      = TEME
TIME_SYSTEM    = UTC
MEAN_ELEMENT_THEORY = SGP/SGP4

EPOCH          = 2026-03-24T16:00:01.999584
MEAN_MOTION    = 16.02914516
ECCENTRICITY   = .00005144
INCLINATION    = 53.1605
RA_OF_ASC_NODE = 263.1255
ARG_OF_PERICENTER = 86.2816
MEAN_ANOMALY   = 78.5563

EPHEMERIS_TYPE = 0
CLASSIFICATION_TYPE = U
NORAD_CAT_ID   = 68264
ELEMENT_SET_NO = 999
REV_AT_EPOCH   = 204
BSTAR          = -.12314489E-2
MEAN_MOTION_DOT = -.769743E-2
MEAN_MOTION_DDOT = .2141629E-3

CCSDS_OMM_VERS = 2.0
CREATION_DATE  = 
ORIGINATOR     = 

OBJECT_NAME    = STARLINK-37133
OBJECT_ID      = 2026-055D
CENTER_NAME    = EARTH
REF_FRAME      = TEME
TIME_SYSTEM    = UTC
MEAN_ELEMENT_THEORY = SGP/SGP4

EPOCH          = 2026-03-24T16:00:01.999584
MEAN_MOTION    = 16.02780861
ECCENTRICITY   = .00005232
INCLINATION    = 53.1606
RA_OF_ASC_NODE = 263.1283
ARG_OF_PERICENTER = 86.1962
MEAN_ANOMALY   = 77.4299

EPHEMERIS_TYPE = 0
CLASSIFICATION_TYPE = U
NORAD_CAT_ID   = 68265
ELEMENT_SET_NO = 999
REV_AT_EPOCH   = 204
BSTAR          = -.12381526E-2
MEAN_MOTION_DOT = -.767828E-2
MEAN_MOTION_DDOT = .21288991E-3

CCSDS_OMM_VERS = 2.0
CREATION_DATE  = 
ORIGINATOR     = 

OBJECT_NAME    = STARLINK-37042
OBJECT_ID      = 2026-055E
CENTER_NAME    = EARTH
REF_FRAME      = TEME
TIME_SYSTEM    = UTC
MEAN_ELEMENT_THEORY = SGP/SGP4

EPOCH          = 2026-03-24T16:00:01.999584
MEAN_MOTION    = 16.03103207
ECCENTRICITY   = .00005627
INCLINATION    = 53.1605
RA_OF_ASC_NODE = 263.1227
ARG_OF_PERICENTER = 73.5614
MEAN_ANOMALY   = 92.8091

EPHEMERIS_TYPE = 0
CLASSIFICATION_TYPE = U
NORAD_CAT_ID   = 68266
ELEMENT_SET_NO = 999
REV_AT_EPOCH   = 204
BSTAR          = -.12222805E-2
MEAN_MOTION_DOT = -.772623E-2
MEAN_MOTION_DDOT = .21605817E-3

CCSDS_OMM_VERS = 2.0
CREATION_DATE  = 
ORIGINATOR     = 

OBJECT_NAME    = STARLINK-37103
OBJECT_ID      = 2026-055F
CENTER_NAME    = EARTH
REF_FRAME      = TEME
TIME_SYSTEM    = UTC
MEAN_ELEMENT_THEORY = SGP/SGP4

EPOCH          = 2026-03-24T16:00:01.999584
MEAN_MOTION    = 16.03254976
ECCENTRICITY   = .00005723
INCLINATION    = 53.1606
RA_OF_ASC_NODE = 263.1196
ARG_OF_PERICENTER = 83.3879
MEAN_ANOMALY   = 84.3204

EPHEMERIS_TYPE = 0
CLASSIFICATION_TYPE = U
NORAD_CAT_ID   = 68267
ELEMENT_SET_NO = 999
REV_AT_EPOCH   = 204
BSTAR          = -.12053945E-2
MEAN_MOTION_DOT = -.768922E-2
MEAN_MOTION_DDOT = .21457836E-3

CCSDS_OMM_VERS = 2.0
CREATION_DATE  = 
ORIGINATOR     = 

OBJECT_NAME    = STARLINK-36999
OBJECT_ID      = 2026-055G
CENTER_NAME    = EARTH
REF_FRAME      = TEME
TIME_SYSTEM    = UTC
MEAN_ELEMENT_THEORY = SGP/SGP4

EPOCH          = 2026-03-24T16:00:01.999584
MEAN_MOTION    = 16.03389085
ECCENTRICITY   = .00005503
INCLINATION    = 53.1606
RA_OF_ASC_NODE = 263.1173
ARG_OF_PERICENTER = 83.3721
MEAN_ANOMALY   = 85.5540

EPHEMERIS_TYPE = 0
CLASSIFICATION_TYPE = U
NORAD_CAT_ID   = 68268
ELEMENT_SET_NO = 999
REV_AT_EPOCH   = 204
BSTAR          = -.1195619E-2
MEAN_MOTION_DOT = -.76883E-2
MEAN_MOTION_DDOT = .2148587E-3

CCSDS_OMM_VERS = 2.0
CREATION_DATE  = 
ORIGINATOR     = 

OBJECT_NAME    = STARLINK-36962
OBJECT_ID      = 2026-055H
CENTER_NAME    = EARTH
REF_FRAME      = TEME
TIME_SYSTEM    = UTC
MEAN_ELEMENT_THEORY = SGP/SGP4

EPOCH          = 2026-03-24T16:00:01.999584
MEAN_MOTION    = 16.03531562
ECCENTRICITY   = .00005661
INCLINATION    = 53.1606
RA_OF_ASC_NODE = 263.1145
ARG_OF_PERICENTER = 86.4597
MEAN_ANOMALY   = 83.7493

EPHEMERIS_TYPE = 0
CLASSIFICATION_TYPE = U
NORAD_CAT_ID   = 68269
ELEMENT_SET_NO = 999
REV_AT_EPOCH   = 204
BSTAR          = -.11797875E-2
MEAN_MOTION_DOT = -.765193E-2
MEAN_MOTION_DDOT = .21338918E-3

CCSDS_OMM_VERS = 2.0
CREATION_DATE  = 
ORIGINATOR     = 

OBJECT_NAME    = STARLINK-37028
OBJECT_ID      = 2026-055J
CENTER_NAME    = EARTH
REF_FRAME      = TEME
TIME_SYSTEM    = UTC
MEAN_ELEMENT_THEORY = SGP/SGP4

EPOCH          = 2026-03-25T15:12:38.605824
MEAN_MOTION    = 16.02879270
ECCENTRICITY   = .00011203
INCLINATION    = 53.1599
RA_OF_ASC_NODE = 258.0956
ARG_OF_PERICENTER = 155.1958
MEAN_ANOMALY   = 204.9129

EPHEMERIS_TYPE = 0
CLASSIFICATION_TYPE = U
NORAD_CAT_ID   = 68270
ELEMENT_SET_NO = 999
REV_AT_EPOCH   = 219
BSTAR          = .24982162E-4
MEAN_MOTION_DOT = .11965E-3
MEAN_MOTION_DDOT = .11453927E-4

CCSDS_OMM_VERS = 2.0
CREATION_DATE  = 
ORIGINATOR     = 

OBJECT_NAME    = STARLINK-37029
OBJECT_ID      = 2026-055K
CENTER_NAME    = EARTH
REF_FRAME      = TEME
TIME_SYSTEM    = UTC
MEAN_ELEMENT_THEORY = SGP/SGP4

EPOCH          = 2026-03-24T16:00:01.999584
MEAN_MOTION    = 16.03808306
ECCENTRICITY   = .00005141
INCLINATION    = 53.1606
RA_OF_ASC_NODE = 263.1073
ARG_OF_PERICENTER = 80.1353
MEAN_ANOMALY   = 93.5369

EPHEMERIS_TYPE = 0
CLASSIFICATION_TYPE = U
NORAD_CAT_ID   = 68271
ELEMENT_SET_NO = 999
REV_AT_EPOCH   = 204
BSTAR          = -.11689966E-2
MEAN_MOTION_DOT = -.770853E-2
MEAN_MOTION_DDOT = .21690334E-3

CCSDS_OMM_VERS = 2.0
CREATION_DATE  = 
ORIGINATOR     = 

OBJECT_NAME    = STARLINK-36974
OBJECT_ID      = 2026-055L
CENTER_NAME    = EARTH
REF_FRAME      = TEME
TIME_SYSTEM    = UTC
MEAN_ELEMENT_THEORY = SGP/SGP4

EPOCH          = 2026-03-25T15:12:04.421664
MEAN_MOTION    = 16.03076247
ECCENTRICITY   = .00009166
INCLINATION    = 53.1599
RA_OF_ASC_NODE = 258.0932
ARG_OF_PERICENTER = 162.9314
MEAN_ANOMALY   = 197.1749

EPHEMERIS_TYPE = 0
CLASSIFICATION_TYPE = U
NORAD_CAT_ID   = 68272
ELEMENT_SET_NO = 999
REV_AT_EPOCH   = 219
BSTAR          = .17922017E-4
MEAN_MOTION_DOT = .7698E-4
MEAN_MOTION_DDOT = .11413274E-4

CCSDS_OMM_VERS = 2.0
CREATION_DATE  = 
ORIGINATOR     = 

OBJECT_NAME    = STARLINK-37019
OBJECT_ID      = 2026-055M
CENTER_NAME    = EARTH
REF_FRAME      = TEME
TIME_SYSTEM    = UTC
MEAN_ELEMENT_THEORY = SGP/SGP4

EPOCH          = 2026-03-24T16:00:01.999584
MEAN_MOTION    = 16.04278765
ECCENTRICITY   = .00004591
INCLINATION    = 53.1605
RA_OF_ASC_NODE = 263.0985
ARG_OF_PERICENTER = 80.5745
MEAN_ANOMALY   = 97.1347

EPHEMERIS_TYPE = 0
CLASSIFICATION_TYPE = U
NORAD_CAT_ID   = 68273
ELEMENT_SET_NO = 999
REV_AT_EPOCH   = 204
BSTAR          = -.11271226E-2
MEAN_MOTION_DOT = -.764727E-2
MEAN_MOTION_DDOT = .21498492E-3

CCSDS_OMM_VERS = 2.0
CREATION_DATE  = 
ORIGINATOR     = 

OBJECT_NAME    = STARLINK-37129
OBJECT_ID      = 2026-055N
CENTER_NAME    = EARTH
REF_FRAME      = TEME
TIME_SYSTEM    = UTC
MEAN_ELEMENT_THEORY = SGP/SGP4

EPOCH          = 2026-03-25T15:11:13.722144
MEAN_MOTION    = 16.03346564
ECCENTRICITY   = .00002666
INCLINATION    = 53.1597
RA_OF_ASC_NODE = 258.0892
ARG_OF_PERICENTER = 19.5705
MEAN_ANOMALY   = 340.5338

EPHEMERIS_TYPE = 0
CLASSIFICATION_TYPE = U
NORAD_CAT_ID   = 68274
ELEMENT_SET_NO = 999
REV_AT_EPOCH   = 219
BSTAR          = .23167187E-4
MEAN_MOTION_DOT = .11238E-3
MEAN_MOTION_DDOT = .11457598E-4

CCSDS_OMM_VERS = 2.0
CREATION_DATE  = 
ORIGINATOR     = 

OBJECT_NAME    = STARLINK-37123
OBJECT_ID      = 2026-055P
CENTER_NAME    = EARTH
REF_FRAME      = TEME
TIME_SYSTEM    = UTC
MEAN_ELEMENT_THEORY = SGP/SGP4

EPOCH          = 2026-03-24T16:00:01.999584
MEAN_MOTION    = 16.04542183
ECCENTRICITY   = .00005274
INCLINATION    = 53.1606
RA_OF_ASC_NODE = 263.0938
ARG_OF_PERICENTER = 76.6424
MEAN_ANOMALY   = 103.4655

EPHEMERIS_TYPE = 0
CLASSIFICATION_TYPE = U
NORAD_CAT_ID   = 68275
ELEMENT_SET_NO = 999
REV_AT_EPOCH   = 204
BSTAR          = -.11050652E-2
MEAN_MOTION_DOT = -.761882E-2
MEAN_MOTION_DDOT = .21420539E-3

CCSDS_OMM_VERS = 2.0
CREATION_DATE  = 
ORIGINATOR     = 

OBJECT_NAME    = STARLINK-37125
OBJECT_ID      = 2026-055Q
CENTER_NAME    = EARTH
REF_FRAME      = TEME
TIME_SYSTEM    = UTC
MEAN_ELEMENT_THEORY = SGP/SGP4

EPOCH          = 2026-03-25T15:10:18.526368
MEAN_MOTION    = 16.03649354
ECCENTRICITY   = .00011904
INCLINATION    = 53.1598
RA_OF_ASC_NODE = 258.0850
ARG_OF_PERICENTER = 155.2403
MEAN_ANOMALY   = 204.8687

EPHEMERIS_TYPE = 0
CLASSIFICATION_TYPE = U
NORAD_CAT_ID   = 68276
ELEMENT_SET_NO = 999
REV_AT_EPOCH   = 219
BSTAR          = -.57405024E-4
MEAN_MOTION_DOT = -.41032E-3
MEAN_MOTION_DDOT = .1193608E-4

CCSDS_OMM_VERS = 2.0
CREATION_DATE  = 
ORIGINATOR     = 

OBJECT_NAME    = STARLINK-36989
OBJECT_ID      = 2026-055R
CENTER_NAME    = EARTH
REF_FRAME      = TEME
TIME_SYSTEM    = UTC
MEAN_ELEMENT_THEORY = SGP/SGP4

EPOCH          = 2026-03-25T15:08:56.098176
MEAN_MOTION    = 16.04082886
ECCENTRICITY   = .00004001
INCLINATION    = 53.1597
RA_OF_ASC_NODE = 258.0784
ARG_OF_PERICENTER = 304.5293
MEAN_ANOMALY   = 55.5702

EPHEMERIS_TYPE = 0
CLASSIFICATION_TYPE = U
NORAD_CAT_ID   = 68277
ELEMENT_SET_NO = 999
REV_AT_EPOCH   = 219
BSTAR          = -.58378564E-4
MEAN_MOTION_DOT = -.42676E-3
MEAN_MOTION_DDOT = .12000211E-4

CCSDS_OMM_VERS = 2.0
CREATION_DATE  = 
ORIGINATOR     = 

OBJECT_NAME    = STARLINK-36982
OBJECT_ID      = 2026-055S
CENTER_NAME    = EARTH
REF_FRAME      = TEME
TIME_SYSTEM    = UTC
MEAN_ELEMENT_THEORY = SGP/SGP4

EPOCH          = 2026-03-24T16:00:01.999584
MEAN_MOTION    = 16.05047677
ECCENTRICITY   = .0000508
INCLINATION    = 53.1606
RA_OF_ASC_NODE = 263.0857
ARG_OF_PERICENTER = 83.9214
MEAN_ANOMALY   = 100.4038

EPHEMERIS_TYPE = 0
CLASSIFICATION_TYPE = U
NORAD_CAT_ID   = 68278
ELEMENT_SET_NO = 999
REV_AT_EPOCH   = 204
BSTAR          = -.10536932E-2
MEAN_MOTION_DOT = -.749354E-2
MEAN_MOTION_DDOT = .2091717E-3

